THURAYA-4               
1 62483U 25001A   26191.29045825  .00000150  00000+0  00000+0 0  9999
2 62483   0.0185  68.1354 0000227 189.1433 179.8062  1.00272503  4407
SHIJIAN-25 (SJ-25)      
1 62485U 25002A   26190.59408590 -.00000342  00000+0  00000+0 0  9990
2 62485   5.1633  61.0172 0052215 175.1404  32.5245  1.00266132  5589
TJS-14                  
1 62804U 25017A   26191.28534490  .00000127  00000+0  00000+0 0  9997
2 62804   0.7327 297.2665 0001776 293.4767 178.5952  1.00273835  5503
SPAINSAT NG I           
1 62852U 25021A   26191.05739304  .00000163  00000+0  00000+0 0  9991
2 62852   0.0169  22.9629 0000258 163.4669 151.2031  1.00273871  4210
QZS-6 (MICHIBIKI-6)     
1 62876U 25023A   26191.29955829 -.00000222  00000+0  00000+0 0  9994
2 62876   0.0230 313.9351 0001819 176.0231 356.5979  1.00268414  5184
ZHONGXING-10R           
1 63075U 25036A   26191.30363164 -.00000341  00000+0  00000+0 0  9999
2 63075   0.0455 225.3660 0004157 280.3590   2.2892  1.00274118  5197
TJS-15                  
1 63157U 25045A   26190.71851236 -.00000252  00000+0  00000+0 0  9997
2 63157   0.3057  85.6422 0003426 296.7568 258.2916  1.00271387  4987
TIANLIAN 2-04           
1 63361U 25062A   26191.21225381 -.00000118  00000+0  00000+0 0  9996
2 63361   4.3182 274.1076 0031524   9.3126 161.1617  1.00269964  4837
TJS-16                  
1 63397U 25064A   26190.72848889 -.00000094  00000+0  00000+0 0  9999
2 63397   1.1532  81.3206 0002559 292.1918 337.0309  1.00271007  4619
TJS-17                  
1 63524U 25073A   26190.72794053 -.00000058  00000+0  00000+0 0  9994
2 63524   1.1191  82.5040 0001089 306.6073 325.1263  1.00270466  4515
TIANLIAN 2-05           
1 63662U 25084A   26191.28577823  .00000140  00000+0  00000+0 0  9996
2 63662   4.3953 279.5683 0002708 153.1140 338.7882  1.00269781  4615
TJS-19                  
1 63924U 25097A   26190.72970124 -.00000261  00000+0  00000+0 0  9995
2 63924   3.2501 317.7916 0003867 243.8122 129.9952  1.00268429  4370
CHINASAT 3B             
1 64062U 25106A   26191.11225007 -.00000033  00000+0  00000+0 0  9994
2 64062   0.0379 179.2630 0003780 322.4510 354.0448  1.00272060  4293
SXM-10                  
1 64290U 25122A   26191.34355212 -.00000006  00000+0  00000+0 0  9992
2 64290   0.0171  38.5464 0001639 320.2974 296.9469  1.00270459  3914
COSMOS 2589             
1 64467U 25131A   26190.65938551 -.00000278  00000+0  00000+0 0  9995
2 64467   0.0519 100.8521 0001362 120.4538  41.6337  1.00268574  3781
CHINASAT 9C             
1 64470U 25132A   26191.29990497 -.00000236  00000+0  00000+0 0  9992
2 64470   0.0281 258.4071 0002918 214.0438  15.9550  1.00270561  4385
MTG-S1                  
1 64723U 25143A   26191.33308481  .00000003  00000+0  00000+0 0  9997
2 64723   0.5871 343.9079 0003443 262.0245 161.8007  1.00272693  3652
DROR 1                  
1 64784U 25148A   26191.33308481 -.00000024  00000+0  00000+0 0  9993
2 64784   0.0529 267.1110 0002042 129.3966   7.6544  1.00271330  3522
SHIYAN-29               
1 65486U 25196A   26190.97872463 -.00000277  00000+0  00000+0 0  9991
2 65486  28.8453  18.2480 0013550 177.1827 180.0603  1.00278041  3106
NUSANTARA LIMA (NUSANT*)
1 65588U 25205A   26191.23271696 -.00000347  00000+0  00000+0 0  9994
2 65588   0.0015 205.3939 0000492 336.5204 302.8780  1.00270709  2959
TJS-20                  
1 66142U 25238A   26190.93765124  .00000042  00000+0  00000+0 0  9998
2 66142   5.4207 299.4569 0004389 178.8850 209.4915  1.00273487  2569
CMS-03 (GSAT-7R)        
1 66311U 25249B   26191.19955841 -.00000066  00000+0  00000+0 0  9991
2 66311   0.0419 259.4577 0001529 178.7929 355.6901  1.00271169  2572
VIASAT-3 F2             
1 66454U 25261A   26191.30808817 -.00000223  00000+0  00000+0 0  9991
2 66454   0.0089 251.5940 0000917 332.8173  95.7666  1.00270895  3020
SHIJIAN-28 (SJ-28)      
1 66549U 25277A   26191.23358362 -.00000344  00000+0  00000+0 0  9994
2 66549   4.4812 271.7669 0001099  24.8628 192.4756  1.00269621  2382
TJS-22                  
1 66990U 25290A   26190.81496499  .00000006  00000+0  00000+0 0  9990
2 66990   1.4746 286.8651 0002259 318.1703  42.6502  1.00274773  2250
TJS-23                  
1 67226U 25306A   26190.54052052  .00000035  00000+0  00000+0 0  9996
2 67226   5.5376 297.3710 0004885 190.2855 169.9087  1.00274138  2115
FENGYUN 4C              
1 67246U 25312A   26190.23870696 -.00000309  00000+0  00000+0 0  9998
2 67246   0.0413 187.4608 0000535  18.2855 300.3735  1.00271510  2001
SHIJIAN-29A (SJ-29A)    
1 67302U 25315A   26191.19608356 -.00000059  00000+0  00000+0 0  9994
2 67302   3.4534  94.5627 0003311  33.1004 304.1644  1.00270593  1843
SHIJIAN-29B (SJ-29B)    
1 67403U 25315C   26191.08237271 -.00000059  00000+0  00000+0 0  9998
2 67403   3.4520  94.5588 0004796  51.1670 245.1269  1.00271946  1911
ELEKTRO-L 5             
1 67756U 26028A   26190.98893873 -.00000086  00000+0  00000+0 0  9995
2 67756   0.2143 322.0774 0002003 176.7514 221.1873  1.00272020  1485
JAM-E JAM 1             
1 67757U 26028B   26191.21720354  .00000167  00000+0  00000+0 0  9995
2 67757   0.2160 310.4005 0001639 324.5887 125.3529  1.00271382  1352
ECHOSTAR 25             
1 68126U 26045A   26190.65229306 -.00000044  00000+0  00000+0 0  9998
2 68126   0.0170  34.8595 0001443  73.0161 304.5349  1.00270527  1213
