OBJECT_NAME,OBJECT_ID,EPOCH,MEAN_MOTION,ECCENTRICITY,INCLINATION,RA_OF_ASC_NODE,ARG_OF_PERICENTER,MEAN_ANOMALY,EPHEMERIS_TYPE,CLASSIFICATION_TYPE,NORAD_CAT_ID,ELEMENT_SET_NO,REV_AT_EPOCH,BSTAR,MEAN_MOTION_DOT,MEAN_MOTION_DDOT
THURAYA-4,2025-001A,2026-07-10T06:58:15.592800,1.00272503,.00002272,0.0185,68.1354,189.1433,179.8062,0,U,62483,999,440,0,.15E-5,0
SHIJIAN-25 (SJ-25),2025-002A,2026-07-09T14:15:29.021760,1.00266132,.0052215,5.1633,61.0172,175.1404,32.5245,0,U,62485,999,558,0,-.342E-5,0
TJS-14,2025-017A,2026-07-10T06:50:53.799360,1.00273835,.00017766,0.7327,297.2665,293.4767,178.5952,0,U,62804,999,550,0,.127E-5,0
SPAINSAT NG I,2025-021A,2026-07-10T01:22:38.758656,1.00273871,.00002582,0.0169,22.9629,163.4669,151.2031,0,U,62852,999,421,0,.163E-5,0
QZS-6 (MICHIBIKI-6),2025-023A,2026-07-10T07:11:21.836256,1.00268414,.0001819,0.0230,313.9351,176.0231,356.5979,0,U,62876,999,518,0,-.222E-5,0
ZHONGXING-10R,2025-036A,2026-07-10T07:17:13.773696,1.00274118,.00041577,0.0455,225.3660,280.3590,2.2892,0,U,63075,999,519,0,-.341E-5,0
TJS-15,2025-045A,2026-07-09T17:14:39.467904,1.00271387,.0003426,0.3057,85.6422,296.7568,258.2916,0,U,63157,999,498,0,-.252E-5,0
TIANLIAN 2-04,2025-062A,2026-07-10T05:05:38.729184,1.00269964,.00315247,4.3182,274.1076,9.3126,161.1617,0,U,63361,999,483,0,-.118E-5,0
TJS-16,2025-064A,2026-07-09T17:29:01.440096,1.00271007,.0002559,1.1532,81.3206,292.1918,337.0309,0,U,63397,999,461,0,-.94E-6,0
TJS-17,2025-073A,2026-07-09T17:28:14.061792,1.00270466,.0001089,1.1191,82.5040,306.6073,325.1263,0,U,63524,999,451,0,-.58E-6,0
TIANLIAN 2-05,2025-084A,2026-07-10T06:51:31.239072,1.00269781,.00027086,4.3953,279.5683,153.1140,338.7882,0,U,63662,999,461,0,.14E-5,0
TJS-19,2025-097A,2026-07-09T17:30:46.187136,1.00268429,.0003867,3.2501,317.7916,243.8122,129.9952,0,U,63924,999,437,0,-.261E-5,0
CHINASAT 3B,2025-106A,2026-07-10T02:41:38.406048,1.00272060,.00037801,0.0379,179.2630,322.4510,354.0448,0,U,64062,999,429,0,-.33E-6,0
SXM-10,2025-122A,2026-07-10T08:14:42.903168,1.00270459,.00016395,0.0171,38.5464,320.2974,296.9469,0,U,64290,999,391,0,-.6E-7,0
COSMOS 2589,2025-131A,2026-07-09T15:49:30.908064,1.00268574,.0001362,0.0519,100.8521,120.4538,41.6337,0,U,64467,999,378,0,-.278E-5,0
CHINASAT 9C,2025-132A,2026-07-10T07:11:51.789408,1.00270561,.00029188,0.0281,258.4071,214.0438,15.9550,0,U,64470,999,438,0,-.236E-5,0
MTG-S1,2025-143A,2026-07-10T07:59:38.527584,1.00272693,.00034438,0.5871,343.9079,262.0245,161.8007,0,U,64723,999,365,0,.3E-7,0
DROR 1,2025-148A,2026-07-10T07:59:38.527584,1.00271330,.00020424,0.0529,267.1110,129.3966,7.6544,0,U,64784,999,352,0,-.24E-6,0
SHIYAN-29,2025-196A,2026-07-09T23:29:21.808032,1.00278041,.00135504,28.8453,18.2480,177.1827,180.0603,0,U,65486,999,310,0,-.277E-5,0
NUSANTARA LIMA (NUSANTARA 5),2025-205A,2026-07-10T05:35:06.745344,1.00270709,.00004928,0.0015,205.3939,336.5204,302.8780,0,U,65588,999,295,0,-.347E-5,0
TJS-20,2025-238A,2026-07-09T22:30:13.067136,1.00273487,.00043898,5.4207,299.4569,178.8850,209.4915,0,U,66142,999,256,0,.42E-6,0
CMS-03 (GSAT-7R),2025-249B,2026-07-10T04:47:21.846624,1.00271169,.00015298,0.0419,259.4577,178.7929,355.6901,0,U,66311,999,257,0,-.66E-6,0
VIASAT-3 F2,2025-261A,2026-07-10T07:23:38.817888,1.00270895,.00009179,0.0089,251.5940,332.8173,95.7666,0,U,66454,999,302,0,-.223E-5,0
SHIJIAN-28 (SJ-28),2025-277A,2026-07-10T05:36:21.624768,1.00269621,.00010992,4.4812,271.7669,24.8628,192.4756,0,U,66549,999,238,0,-.344E-5,0
TJS-22,2025-290A,2026-07-09T19:33:32.975136,1.00274773,.00022597,1.4746,286.8651,318.1703,42.6502,0,U,66990,999,225,0,.6E-7,0
TJS-23,2025-306A,2026-07-09T12:58:20.972928,1.00274138,.00048855,5.5376,297.3710,190.2855,169.9087,0,U,67226,999,211,0,.35E-6,0
FENGYUN 4C,2025-312A,2026-07-09T05:43:44.281344,1.00271510,.0000535,0.0413,187.4608,18.2855,300.3735,0,U,67246,999,200,0,-.309E-5,0
SHIJIAN-29A (SJ-29A),2025-315A,2026-07-10T04:42:21.619584,1.00270593,.00033119,3.4534,94.5627,33.1004,304.1644,0,U,67302,999,184,0,-.59E-6,0
SHIJIAN-29B (SJ-29B),2025-315C,2026-07-10T01:58:37.002144,1.00271946,.00047966,3.4520,94.5588,51.1670,245.1269,0,U,67403,999,191,0,-.59E-6,0
ELEKTRO-L 5,2026-028A,2026-07-09T23:44:04.306272,1.00272020,.00020038,0.2143,322.0774,176.7514,221.1873,0,U,67756,999,148,0,-.86E-6,0
JAM-E JAM 1,2026-028B,2026-07-10T05:12:46.385856,1.00271382,.0001639,0.2160,310.4005,324.5887,125.3529,0,U,67757,999,135,0,.167E-5,0
ECHOSTAR 25,2026-045A,2026-07-09T15:39:18.120384,1.00270527,.0001443,0.0170,34.8595,73.0161,304.5349,0,U,68126,999,121,0,-.44E-6,0
